LANDSAT 9               
1 49260U 21088A   24161.20508300  .00000952  00000+0  22131-3 0  9999
2 49260  98.1876 230.9594 0001026  96.6565 263.4751 14.57124985143529
